[{"OBJECT_NAME":"ZIYUAN 1-02C (ZY 1-02C)","OBJECT_ID":"2011-079A","EPOCH":"2026-03-10T00:21:45.280224","MEAN_MOTION":14.38123973,"ECCENTRICITY":0.00053834,"INCLINATION":98.4167,"RA_OF_ASC_NODE":138.3624,"ARG_OF_PERICENTER":238.9134,"MEAN_ANOMALY":241.9717,"EPHEMERIS_TYPE":0,"CLASSIFICATION_TYPE":"U","NORAD_CAT_ID":38038,"ELEMENT_SET_NO":999,"REV_AT_EPOCH":74495,"BSTAR":0.00018700518,"MEAN_MOTION_DOT":5.24e-6,"MEAN_MOTION_DDOT":0},{"OBJECT_NAME":"COSMOS 372","OBJECT_ID":"1970-086A","EPOCH":"2026-03-09T22:04:56.576928","MEAN_MOTION":14.36920232,"ECCENTRICITY":0.00135581,"INCLINATION":74.0559,"RA_OF_ASC_NODE":36.7431,"ARG_OF_PERICENTER":192.2411,"MEAN_ANOMALY":183.509,"EPHEMERIS_TYPE":0,"CLASSIFICATION_TYPE":"U","NORAD_CAT_ID":4588,"ELEMENT_SET_NO":999,"REV_AT_EPOCH":89866,"BSTAR":7.2842069e-5,"MEAN_MOTION_DOT":1.9e-6,"MEAN_MOTION_DDOT":0}]
